ONEWEB-0377             
1 49303U 21090AA  23311.45671616  .00000183  00000+0  41821-3 0  9997
2 49303  87.9150 104.1054 0001430 100.8894 259.2400 13.20771999104751
ONEWEB-0378             
1 49304U 21090AB  23311.95017790 -.00000068  00000+0 -20005-3 0  9995
2 49304  87.9164 104.0082 0001514  84.3968 275.7338 13.20771138105409
ONEWEB-0379             
1 49305U 21090AC  23311.72773361 -.00000282  00000+0 -79925-3 0  9997
2 49305  87.8937 119.3048 0001586  84.9731 275.1580 13.14253893103734
ONEWEB-0380             
1 49306U 21090AD  23311.77456503  .00000091  00000+0  19390-3 0  9995
2 49306  87.9175 134.5433 0001557  90.4219 269.7092 13.19727387102081
ONEWEB-0381             
1 49307U 21090AE  23311.82074744 -.00000053  00000+0 -16197-3 0  9997
2 49307  87.9210 104.0051 0001660  99.1244 261.0077 13.20770026105417
ONEWEB-0382             
1 49308U 21090AF  23311.50510510 -.00000022  00000+0 -85889-4 0  9990
2 49308  87.9150 104.0939 0002176  91.3793 268.7589 13.20778497104064
ONEWEB-0383             
1 49309U 21090AG  23311.72137110 -.00000187  00000+0 -54049-3 0  9991
2 49309  87.8946 119.2923 0001763  83.1487 276.9843 13.14251371103757
ONEWEB-0384             
1 49310U 21090AH  23311.95544872 -.00000015  00000+0 -69095-4 0  9993
2 49310  87.9162 104.0069 0002245  89.8914 270.2476 13.20772922105441
